ONEWEB-0258             
1 48976U 21060K   24173.56138558  .00000077  00000+0  16766-3 0  9993
2 48976  87.9101  13.2507 0001807  84.9683 275.1654 13.16594347144118
ONEWEB-0259             
1 48977U 21060L   24173.55505031  .00000087  00000+0  19345-3 0  9994
2 48977  87.9102  13.2368 0001864  79.1688 280.9653 13.16594766144140
ONEWEB-0260             
1 48978U 21060M   24173.54634722  .00000128  00000+0  30087-3 0  9996
2 48978  87.9102  13.2672 0002251 100.3850 259.7535 13.16593752144123
ONEWEB-0261             
1 48979U 21060N   24173.59146407  .00000013  00000+0 -46940-6 0  9992
2 48979  87.9102  13.2517 0002467  83.2262 276.9149 13.16594883144181
ONEWEB-0262             
1 48980U 21060P   24173.57245057  .00000014  00000+0  37737-5 0  9996
2 48980  87.9101  13.2197 0002046  73.5537 286.5819 13.16596457144142
ONEWEB-0263             
1 48981U 21060Q   24173.60413025  .00000066  00000+0  14016-3 0  9993
2 48981  87.9103  13.2298 0002238  78.2249 281.9133 13.16594676144118
ONEWEB-0264             
1 48982U 21060R   24173.56534417  .00000032  00000+0  50834-4 0  9990
2 48982  87.9104  13.2491 0001923  86.3557 273.7794 13.16594573144115
ONEWEB-0266             
1 48984U 21060T   24173.58671380 -.00000059  00000+0 -18844-3 0  9990
2 48984  87.9101  13.2221 0001752  85.2411 274.8920 13.16594953144106
